IRIDIUM 106             
1 41917U 17003A   26062.25664618  .00000091  00000+0  25572-4 0  9991
2 41917  86.3992 132.8488 0001925 104.6599 255.4810 14.34218033478021
IRIDIUM 103             
1 41918U 17003B   26062.24396086  .00000134  00000+0  40926-4 0  9990
2 41918  86.3990 132.7542 0002181  86.5740 273.5705 14.34218527478045
IRIDIUM 109             
1 41919U 17003C   26062.25030414  .00000060  00000+0  14305-4 0  9992
2 41919  86.3990 132.8092 0002185  94.9526 265.1919 14.34217868478014
IRIDIUM 102             
1 41920U 17003D   26062.28835918  .00000183  00000+0  58214-4 0  9992
2 41920  86.3991 132.7193 0002259  97.0289 263.1164 14.34218451478109
IRIDIUM 105             
1 41921U 17003E   26062.46421473  .00000335  00000+0  11205-3 0  9997
2 41921  86.3927 101.0995 0002261  93.0298 267.1157 14.34398155479980
IRIDIUM 104             
1 41922U 17003F   26062.23127690  .00000130  00000+0  39285-4 0  9999
2 41922  86.3990 132.7840 0002397  88.9902 271.1569 14.34218291478080
IRIDIUM 114             
1 41923U 17003G   26062.23761877  .00000108  00000+0  31383-4 0  9997
2 41923  86.3991 132.7650 0002253  90.1340 270.0114 14.34218188478060
IRIDIUM 108             
1 41924U 17003H   26062.47521384  .00000264  00000+0  87042-4 0  9997
2 41924  86.3919 100.9835 0002320  97.4495 262.6965 14.34218397479951
IRIDIUM 112             
1 41925U 17003J   26062.22493397  .00000109  00000+0  31988-4 0  9999
2 41925  86.3985 132.6173 0002351  94.4298 265.7167 14.34218023478081
IRIDIUM 111             
1 41926U 17003K   26062.28201719  .00000081  00000+0  21784-4 0  9993
2 41926  86.3990 132.6617 0002138  95.1382 265.0058 14.34217751478074
IRIDIUM 113             
1 42803U 17039A   26062.40151809  .00000074  00000+0  19391-4 0  9998
2 42803  86.4019   6.3751 0002278  82.5993 277.5461 14.34218147456028
IRIDIUM 123             
1 42804U 17039B   26062.44299625  .00000059  00000+0  14050-4 0  9992
2 42804  86.3964  37.8152 0002017  82.8547 277.2878 14.34217556454794
IRIDIUM 120             
1 42805U 17039C   26062.32540574  .00000361  00000+0  12172-3 0  9990
2 42805  86.4013   6.2034 0002068  89.4638 270.6795 14.34218903456008
IRIDIUM 115             
1 42806U 17039D   26062.31970705  .00000508  00000+0  14510-3 0  9994
2 42806  86.4547   6.3198 0001863  84.6087 275.5326 14.43283487458993
IRIDIUM 118             
1 42807U 17039E   26062.47470824  .00000132  00000+0  40081-4 0  9995
2 42807  86.3960  37.8005 0002236  85.5507 274.5944 14.34217738454795
IRIDIUM 117             
1 42808U 17039F   26062.42396817  .00000028  00000+0  30748-5 0  9994
2 42808  86.3961  37.7804 0002040  83.5635 276.5793 14.34217822454817
IRIDIUM 126             
1 42809U 17039G   26062.44933911  .00000003  00000+0 -61635-5 0  9992
2 42809  86.3959  37.8195 0002078  82.3073 277.8359 14.34217609454795
