[{"OBJECT_NAME":"IRIDIUM 106","OBJECT_ID":"2017-003A","EPOCH":"2026-03-03T06:09:34.229952","MEAN_MOTION":14.34218033,"ECCENTRICITY":0.0001925,"INCLINATION":86.3992,"RA_OF_ASC_NODE":132.8488,"ARG_OF_PERICENTER":104.6599,"MEAN_ANOMALY":255.481,"EPHEMERIS_TYPE":0,"CLASSIFICATION_TYPE":"U","NORAD_CAT_ID":41917,"ELEMENT_SET_NO":999,"REV_AT_EPOCH":47802,"BSTAR":2.5572e-5,"MEAN_MOTION_DOT":9.1e-7,"MEAN_MOTION_DDOT":0},{"OBJECT_NAME":"IRIDIUM 103","OBJECT_ID":"2017-003B","EPOCH":"2026-03-03T05:51:18.218304","MEAN_MOTION":14.34218527,"ECCENTRICITY":0.0002181,"INCLINATION":86.399,"RA_OF_ASC_NODE":132.7542,"ARG_OF_PERICENTER":86.574,"MEAN_ANOMALY":273.5705,"EPHEMERIS_TYPE":0,"CLASSIFICATION_TYPE":"U","NORAD_CAT_ID":41918,"ELEMENT_SET_NO":999,"REV_AT_EPOCH":47804,"BSTAR":4.0926e-5,"MEAN_MOTION_DOT":1.34e-6,"MEAN_MOTION_DDOT":0},{"OBJECT_NAME":"IRIDIUM 109","OBJECT_ID":"2017-003C","EPOCH":"2026-03-03T06:00:26.277696","MEAN_MOTION":14.34217868,"ECCENTRICITY":0.0002185,"INCLINATION":86.399,"RA_OF_ASC_NODE":132.8092,"ARG_OF_PERICENTER":94.9526,"MEAN_ANOMALY":265.1919,"EPHEMERIS_TYPE":0,"CLASSIFICATION_TYPE":"U","NORAD_CAT_ID":41919,"ELEMENT_SET_NO":999,"REV_AT_EPOCH":47801,"BSTAR":1.4305e-5,"MEAN_MOTION_DOT":6.0e-7,"MEAN_MOTION_DDOT":0},{"OBJECT_NAME":"IRIDIUM 102","OBJECT_ID":"2017-003D","EPOCH":"2026-03-03T06:55:14.233152","MEAN_MOTION":14.34218451,"ECCENTRICITY":0.0002259,"INCLINATION":86.3991,"RA_OF_ASC_NODE":132.7193,"ARG_OF_PERICENTER":97.0289,"MEAN_ANOMALY":263.1164,"EPHEMERIS_TYPE":0,"CLASSIFICATION_TYPE":"U","NORAD_CAT_ID":41920,"ELEMENT_SET_NO":999,"REV_AT_EPOCH":47810,"BSTAR":5.8214e-5,"MEAN_MOTION_DOT":1.83e-6,"MEAN_MOTION_DDOT":0},{"OBJECT_NAME":"IRIDIUM 105","OBJECT_ID":"2017-003E","EPOCH":"2026-03-03T11:08:28.152672","MEAN_MOTION":14.34398155,"ECCENTRICITY":0.0002261,"INCLINATION":86.3927,"RA_OF_ASC_NODE":101.0995,"ARG_OF_PERICENTER":93.0298,"MEAN_ANOMALY":267.1157,"EPHEMERIS_TYPE":0,"CLASSIFICATION_TYPE":"U","NORAD_CAT_ID":41921,"ELEMENT_SET_NO":999,"REV_AT_EPOCH":47998,"BSTAR":0.00011205,"MEAN_MOTION_DOT":3.35e-6,"MEAN_MOTION_DDOT":0},{"OBJECT_NAME":"IRIDIUM 104","OBJECT_ID":"2017-003F","EPOCH":"2026-03-03T05:33:02.324160","MEAN_MOTION":14.34218291,"ECCENTRICITY":0.0002397,"INCLINATION":86.399,"RA_OF_ASC_NODE":132.784,"ARG_OF_PERICENTER":88.9902,"MEAN_ANOMALY":271.1569,"EPHEMERIS_TYPE":0,"CLASSIFICATION_TYPE":"U","NORAD_CAT_ID":41922,"ELEMENT_SET_NO":999,"REV_AT_EPOCH":47808,"BSTAR":3.9285e-5,"MEAN_MOTION_DOT":1.3e-6,"MEAN_MOTION_DDOT":0},{"OBJECT_NAME":"IRIDIUM 114","OBJECT_ID":"2017-003G","EPOCH":"2026-03-03T05:42:10.261728","MEAN_MOTION":14.34218188,"ECCENTRICITY":0.0002253,"INCLINATION":86.3991,"RA_OF_ASC_NODE":132.765,"ARG_OF_PERICENTER":90.134,"MEAN_ANOMALY":270.0114,"EPHEMERIS_TYPE":0,"CLASSIFICATION_TYPE":"U","NORAD_CAT_ID":41923,"ELEMENT_SET_NO":999,"REV_AT_EPOCH":47806,"BSTAR":3.1383e-5,"MEAN_MOTION_DOT":1.08e-6,"MEAN_MOTION_DDOT":0},{"OBJECT_NAME":"IRIDIUM 108","OBJECT_ID":"2017-003H","EPOCH":"2026-03-03T11:24:18.475776","MEAN_MOTION":14.34218397,"ECCENTRICITY":0.000232,"INCLINATION":86.3919,"RA_OF_ASC_NODE":100.9835,"ARG_OF_PERICENTER":97.4495,"MEAN_ANOMALY":262.6965,"EPHEMERIS_TYPE":0,"CLASSIFICATION_TYPE":"U","NORAD_CAT_ID":41924,"ELEMENT_SET_NO":999,"REV_AT_EPOCH":47995,"BSTAR":8.7042e-5,"MEAN_MOTION_DOT":2.64e-6,"MEAN_MOTION_DDOT":0},{"OBJECT_NAME":"IRIDIUM 112","OBJECT_ID":"2017-003J","EPOCH":"2026-03-03T05:23:54.295008","MEAN_MOTION":14.34218023,"ECCENTRICITY":0.0002351,"INCLINATION":86.3985,"RA_OF_ASC_NODE":132.6173,"ARG_OF_PERICENTER":94.4298,"MEAN_ANOMALY":265.7167,"EPHEMERIS_TYPE":0,"CLASSIFICATION_TYPE":"U","NORAD_CAT_ID":41925,"ELEMENT_SET_NO":999,"REV_AT_EPOCH":47808,"BSTAR":3.1988e-5,"MEAN_MOTION_DOT":1.09e-6,"MEAN_MOTION_DDOT":0},{"OBJECT_NAME":"IRIDIUM 111","OBJECT_ID":"2017-003K","EPOCH":"2026-03-03T06:46:06.285216","MEAN_MOTION":14.34217751,"ECCENTRICITY":0.0002138,"INCLINATION":86.399,"RA_OF_ASC_NODE":132.6617,"ARG_OF_PERICENTER":95.1382,"MEAN_ANOMALY":265.0058,"EPHEMERIS_TYPE":0,"CLASSIFICATION_TYPE":"U","NORAD_CAT_ID":41926,"ELEMENT_SET_NO":999,"REV_AT_EPOCH":47807,"BSTAR":2.1784e-5,"MEAN_MOTION_DOT":8.1e-7,"MEAN_MOTION_DDOT":0},{"OBJECT_NAME":"IRIDIUM 113","OBJECT_ID":"2017-039A","EPOCH":"2026-03-03T09:38:11.162976","MEAN_MOTION":14.34218147,"ECCENTRICITY":0.0002278,"INCLINATION":86.4019,"RA_OF_ASC_NODE":6.3751,"ARG_OF_PERICENTER":82.5993,"MEAN_ANOMALY":277.5461,"EPHEMERIS_TYPE":0,"CLASSIFICATION_TYPE":"U","NORAD_CAT_ID":42803,"ELEMENT_SET_NO":999,"REV_AT_EPOCH":45602,"BSTAR":1.9391e-5,"MEAN_MOTION_DOT":7.4e-7,"MEAN_MOTION_DDOT":0},{"OBJECT_NAME":"IRIDIUM 123","OBJECT_ID":"2017-039B","EPOCH":"2026-03-03T10:37:54.876000","MEAN_MOTION":14.34217556,"ECCENTRICITY":0.0002017,"INCLINATION":86.3964,"RA_OF_ASC_NODE":37.8152,"ARG_OF_PERICENTER":82.8547,"MEAN_ANOMALY":277.2878,"EPHEMERIS_TYPE":0,"CLASSIFICATION_TYPE":"U","NORAD_CAT_ID":42804,"ELEMENT_SET_NO":999,"REV_AT_EPOCH":45479,"BSTAR":1.405e-5,"MEAN_MOTION_DOT":5.9e-7,"MEAN_MOTION_DDOT":0},{"OBJECT_NAME":"IRIDIUM 120","OBJECT_ID":"2017-039C","EPOCH":"2026-03-03T07:48:35.055936","MEAN_MOTION":14.34218903,"ECCENTRICITY":0.0002068,"INCLINATION":86.4013,"RA_OF_ASC_NODE":6.2034,"ARG_OF_PERICENTER":89.4638,"MEAN_ANOMALY":270.6795,"EPHEMERIS_TYPE":0,"CLASSIFICATION_TYPE":"U","NORAD_CAT_ID":42805,"ELEMENT_SET_NO":999,"REV_AT_EPOCH":45600,"BSTAR":0.00012172,"MEAN_MOTION_DOT":3.61e-6,"MEAN_MOTION_DDOT":0},{"OBJECT_NAME":"IRIDIUM 115","OBJECT_ID":"2017-039D","EPOCH":"2026-03-03T07:40:22.689120","MEAN_MOTION":14.43283487,"ECCENTRICITY":0.0001863,"INCLINATION":86.4547,"RA_OF_ASC_NODE":6.3198,"ARG_OF_PERICENTER":84.6087,"MEAN_ANOMALY":275.5326,"EPHEMERIS_TYPE":0,"CLASSIFICATION_TYPE":"U","NORAD_CAT_ID":42806,"ELEMENT_SET_NO":999,"REV_AT_EPOCH":45899,"BSTAR":0.0001451,"MEAN_MOTION_DOT":5.08e-6,"MEAN_MOTION_DDOT":0},{"OBJECT_NAME":"IRIDIUM 118","OBJECT_ID":"2017-039E","EPOCH":"2026-03-03T11:23:34.791936","MEAN_MOTION":14.34217738,"ECCENTRICITY":0.0002236,"INCLINATION":86.396,"RA_OF_ASC_NODE":37.8005,"ARG_OF_PERICENTER":85.5507,"MEAN_ANOMALY":274.5944,"EPHEMERIS_TYPE":0,"CLASSIFICATION_TYPE":"U","NORAD_CAT_ID":42807,"ELEMENT_SET_NO":999,"REV_AT_EPOCH":45479,"BSTAR":4.0081e-5,"MEAN_MOTION_DOT":1.32e-6,"MEAN_MOTION_DDOT":0},{"OBJECT_NAME":"IRIDIUM 117","OBJECT_ID":"2017-039F","EPOCH":"2026-03-03T10:10:30.849888","MEAN_MOTION":14.34217822,"ECCENTRICITY":0.000204,"INCLINATION":86.3961,"RA_OF_ASC_NODE":37.7804,"ARG_OF_PERICENTER":83.5635,"MEAN_ANOMALY":276.5793,"EPHEMERIS_TYPE":0,"CLASSIFICATION_TYPE":"U","NORAD_CAT_ID":42808,"ELEMENT_SET_NO":999,"REV_AT_EPOCH":45481,"BSTAR":3.0748e-6,"MEAN_MOTION_DOT":2.8e-7,"MEAN_MOTION_DDOT":0},{"OBJECT_NAME":"IRIDIUM 126","OBJECT_ID":"2017-039G","EPOCH":"2026-03-03T10:47:02.899104","MEAN_MOTION":14.34217609,"ECCENTRICITY":0.0002078,"INCLINATION":86.3959,"RA_OF_ASC_NODE":37.8195,"ARG_OF_PERICENTER":82.3073,"MEAN_ANOMALY":277.8359,"EPHEMERIS_TYPE":0,"CLASSIFICATION_TYPE":"U","NORAD_CAT_ID":42809,"ELEMENT_SET_NO":999,"REV_AT_EPOCH":45479,"BSTAR":-6.1635e-6,"MEAN_MOTION_DOT":3.0e-8,"MEAN_MOTION_DDOT":0}]
